{"type": "FeatureCollection", "features": [{"type": "Feature", "properties": {"norad_id": 50032, "name": "COSMOS 1408 DEB", "group": "cosmos-1408-debris", "lat": 48.21599457553875, "lon": 73.95944898729996, "alt_km": 435.3796412693637, "timestamp": "2025-12-05T20:43:02.325829+00:00", "meta": {"OBJECT_NAME": "COSMOS 1408 DEB", "OBJECT_ID": "1982-092RU", "EPOCH": "2025-12-05T06:31:19.541280", "MEAN_MOTION": 15.45578646, "ECCENTRICITY": 0.00147654, "INCLINATION": 82.5653, "RA_OF_ASC_NODE": 66.1624, "ARG_OF_PERICENTER": 237.7791, "MEAN_ANOMALY": 122.2027, "EPHEMERIS_TYPE": 0, "CLASSIFICATION_TYPE": "U", "NORAD_CAT_ID": 50032, "ELEMENT_SET_NO": 999, "REV_AT_EPOCH": 22488, "BSTAR": 0.00019138736, "MEAN_MOTION_DOT": 9.277e-05, "MEAN_MOTION_DDOT": 0}, "tle": {"line1": "1 50032U 82092RU  25339.27175395  .00009277  00000+0  19139-3 0  9992", "line2": "2 50032  82.5653  66.1624 0014765 237.7791 122.2027 15.45578646224886"}}, "geometry": {"type": "Point", "coordinates": [73.95944898729996, 48.21599457553875]}}, {"type": "Feature", "properties": {"norad_id": 50058, "name": "COSMOS 1408 DEB", "group": "cosmos-1408-debris", "lat": 17.691358473368968, "lon": -105.83627776604347, "alt_km": 369.5817771159491, "timestamp": "2025-12-05T20:43:02.325849+00:00", "meta": {"OBJECT_NAME": "COSMOS 1408 DEB", "OBJECT_ID": "1982-092SW", "EPOCH": "2025-12-05T07:44:20.866272", "MEAN_MOTION": 15.63451747, "ECCENTRICITY": 0.00162561, "INCLINATION": 82.6139, "RA_OF_ASC_NODE": 77.1006, "ARG_OF_PERICENTER": 125.0506, "MEAN_ANOMALY": 235.2281, "EPHEMERIS_TYPE": 0, "CLASSIFICATION_TYPE": "U", "NORAD_CAT_ID": 50058, "ELEMENT_SET_NO": 999, "REV_AT_EPOCH": 22688, "BSTAR": 0.00050619425, "MEAN_MOTION_DOT": 0.00047214, "MEAN_MOTION_DDOT": 0}, "tle": {"line1": "1 50058U 82092SW  25339.32246373  .00047214  00000+0  50619-3 0  9992", "line2": "2 50058  82.6139  77.1006 0016256 125.0506 235.2281 15.63451747226881"}}, "geometry": {"type": "Point", "coordinates": [-105.83627776604347, 17.691358473368968]}}, {"type": "Feature", "properties": {"norad_id": 50404, "name": "COSMOS 1408 DEB", "group": "cosmos-1408-debris", "lat": 80.44516992599846, "lon": -83.46044627905808, "alt_km": 610.66641887485, "timestamp": "2025-12-05T20:43:02.325863+00:00", "meta": {"OBJECT_NAME": "COSMOS 1408 DEB", "OBJECT_ID": "1982-092ADS", "EPOCH": "2025-12-05T02:51:55.351296", "MEAN_MOTION": 15.12235764, "ECCENTRICITY": 0.01753461, "INCLINATION": 82.2048, "RA_OF_ASC_NODE": 222.8255, "ARG_OF_PERICENTER": 225.2517, "MEAN_ANOMALY": 133.4334, "EPHEMERIS_TYPE": 0, "CLASSIFICATION_TYPE": "U", "NORAD_CAT_ID": 50404, "ELEMENT_SET_NO": 999, "REV_AT_EPOCH": 21078, "BSTAR": 0.0046703506, "MEAN_MOTION_DOT": 0.00119144, "MEAN_MOTION_DDOT": 0}, "tle": {"line1": "1 50404U 82092ADS 25339.11939064  .00119144  00000+0  46704-2 0  9991", "line2": "2 50404  82.2048 222.8255 0175346 225.2517 133.4334 15.12235764210780"}}, "geometry": {"type": "Point", "coordinates": [-83.46044627905808, 80.44516992599846]}}, {"type": "Feature", "properties": {"norad_id": 50621, "name": "COSMOS 1408 DEB", "group": "cosmos-1408-debris", "lat": 1.055980039365556, "lon": 81.47452997174226, "alt_km": 421.332893965774, "timestamp": "2025-12-05T20:43:02.325874+00:00", "meta": {"OBJECT_NAME": "COSMOS 1408 DEB", "OBJECT_ID": "1982-092ALR", "EPOCH": "2025-12-05T06:49:21.818784", "MEAN_MOTION": 15.56082039, "ECCENTRICITY": 0.00287898, "INCLINATION": 82.5718, "RA_OF_ASC_NODE": 81.9388, "ARG_OF_PERICENTER": 179.9157, "MEAN_ANOMALY": 180.2108, "EPHEMERIS_TYPE": 0, "CLASSIFICATION_TYPE": "U", "NORAD_CAT_ID": 50621, "ELEMENT_SET_NO": 999, "REV_AT_EPOCH": 22134, "BSTAR": 0.00061371624, "MEAN_MOTION_DOT": 0.000438, "MEAN_MOTION_DDOT": 0}, "tle": {"line1": "1 50621U 82092ALR 25339.28428031  .00043800  00000+0  61372-3 0  9991", "line2": "2 50621  82.5718  81.9388 0028789 179.9157 180.2108 15.56082039221348"}}, "geometry": {"type": "Point", "coordinates": [81.47452997174226, 1.055980039365556]}}]}